SENTINEL-6              
1 46984U 20086A   24091.93647004 -.00000050  00000+0  48601-4 0  9994
2 46984  66.0449  11.7196 0007823 271.3224  88.6895 12.80929380156938
